[{"OBJECT_NAME":"DEIMOS-1","OBJECT_ID":"2009-041A","EPOCH":"2026-03-09T22:50:30.761952","MEAN_MOTION":14.75118191,"ECCENTRICITY":0.00022903,"INCLINATION":97.7263,"RA_OF_ASC_NODE":230.5528,"ARG_OF_PERICENTER":117.9333,"MEAN_ANOMALY":242.2109,"EPHEMERIS_TYPE":0,"CLASSIFICATION_TYPE":"U","NORAD_CAT_ID":35681,"ELEMENT_SET_NO":999,"REV_AT_EPOCH":89225,"BSTAR":0.00020972265,"MEAN_MOTION_DOT":1.367e-5,"MEAN_MOTION_DDOT":0},{"OBJECT_NAME":"CZ-6A DEB","OBJECT_ID":"2024-140AAQ","EPOCH":"2026-03-09T14:07:08.178240","MEAN_MOTION":14.59191271,"ECCENTRICITY":0.0107505,"INCLINATION":89.0587,"RA_OF_ASC_NODE":286.456,"ARG_OF_PERICENTER":235.3501,"MEAN_ANOMALY":123.7541,"EPHEMERIS_TYPE":0,"CLASSIFICATION_TYPE":"U","NORAD_CAT_ID":61482,"ELEMENT_SET_NO":999,"REV_AT_EPOCH":8020,"BSTAR":0.00067073,"MEAN_MOTION_DOT":3.443e-5,"MEAN_MOTION_DDOT":0}]
